     2.100          NAVIGATION                              RINEX VERSION / TYPE
fic2rin                                 04/07/2017 00:22:50 PGM / RUN BY / DATE
                                                            END OF HEADER
15 17  4  6 12  0  0.0 -.347279477865D-03 -.795807864051D-12  .000000000000D+00
     .470000000000D+02  .488437500000D+02  .566559313755D-08  .188554616516D+01
     .256486237049D-05  .909721385688D-02  .665150582790D-05  .515376913071D+04
     .388800000000D+06 -.270083546638D-06  .502903847347D+00  .100582838058D-06
     .929639927166D+00  .237875000000D+03  .578380024741D+00 -.863285959325D-08
     .257153568621D-09  .100000000000D+01  .194300000000D+04  .000000000000D+00
     .240000000000D+01  .000000000000D+00 -.107102096081D-07  .470000000000D+02
     .381606000000D+06  .400000000000D+01
16 17  4  6 12  0  0.0  .307033769786D-04  .909494701773D-12  .000000000000D+00
     .120000000000D+02  .550937500000D+02  .351407494676D-08 -.258243617116D+01
     .276602804661D-05  .933827750850D-02  .106953084469D-04  .515368111420D+04
     .388800000000D+06 -.130385160446D-07  .274418012591D+01 -.465661287308D-07
     .990139224713D+00  .190437500000D+03  .425161358226D+00 -.751674167389D-08
     .932181686252D-10  .100000000000D+01  .194300000000D+04  .000000000000D+00
     .240000000000D+01  .000000000000D+00 -.107102096081D-07  .120000000000D+02
     .381606000000D+06  .400000000000D+01
17 17  4  6 12  0  0.0 -.185082200915D-03  .159161572810D-11  .000000000000D+00
     .260000000000D+02  .428437500000D+02  .413695803519D-08  .270198398601D+01
     .216811895370D-05  .116389725590D-01  .406615436077D-05  .515360591507D+04
     .388800000000D+06  .521540641785D-07 -.252148842047D+01 -.912696123123D-07
     .979581419544D+00  .308125000000D+03 -.185061183650D+01 -.794390232399D-08
     .316084594764D-09  .100000000000D+01  .194300000000D+04  .000000000000D+00
     .240000000000D+01  .000000000000D+00 -.107102096081D-07  .260000000000D+02
     .381606000000D+06  .400000000000D+01
18 17  4  6 12  0  0.0  .608941540122D-03  .216004991671D-11  .000000000000D+00
     .900000000000D+02 -.896875000000D+01  .516092925913D-08 -.207840588275D+01
    -.460073351860D-06  .178951404523D-01  .106580555439D-04  .515375498962D+04
     .388800000000D+06  .260770320892D-06 -.517038039567D+00  .521540641785D-07
     .925743042559D+00  .148500000000D+03 -.181716617034D+01 -.800783355841D-08
     .271082720255D-09  .100000000000D+01  .194300000000D+04  .000000000000D+00
     .240000000000D+01  .000000000000D+00 -.111758708954D-07  .900000000000D+02
     .381606000000D+06  .400000000000D+01
19 17  4  6 12  0  0.0 -.508068129420D-03  .125055521494D-11  .000000000000D+00
     .470000000000D+02  .360937500000D+02  .438196824085D-08 -.446540387445D+00
     .214390456676D-05  .102183158742D-01  .425986945629D-05  .515365529823D+04
     .388800000000D+06 -.260770320892D-07 -.247353161053D+01  .167638063431D-06
     .976788902036D+00  .307718750000D+03  .940898963098D+00 -.838213486385D-08
     .350014579512D-09  .100000000000D+01  .194300000000D+04  .000000000000D+00
     .240000000000D+01  .000000000000D+00 -.153668224812D-07  .470000000000D+02
     .381606000000D+06  .400000000000D+01
21 17  4  6 12  0  0.0 -.513764098287D-03  .193267624127D-11  .000000000000D+00
     .730000000000D+02 -.677187500000D+02  .523986111839D-08 -.117461488564D+01
    -.299885869026D-05  .240229457850D-01  .602751970291D-05  .515370570946D+04
     .388800000000D+06 -.212341547012D-06 -.155803472185D+01  .558793544769D-06
     .938884652177D+00  .254031250000D+03 -.168675881616D+01 -.872822070828D-08
    -.810748056625D-10  .100000000000D+01  .194300000000D+04  .000000000000D+00
     .240000000000D+01  .000000000000D+00 -.977888703346D-08  .730000000000D+02
     .381606000000D+06  .400000000000D+01
22 17  4  6 12  0  0.0  .499193556607D-04 -.119371179608D-10  .000000000000D+00
     .490000000000D+02 -.255000000000D+02  .529557772493D-08  .223459491080D+01
    -.136904418468D-05  .755066785496D-02  .118557363749D-04  .515355300522D+04
     .388800000000D+06  .856816768646D-07 -.517077965527D+00 -.800937414169D-07
     .923762204667D+00  .132281250000D+03 -.177268090158D+01 -.820641325862D-08
     .200722646618D-09  .100000000000D+01  .194300000000D+04  .000000000000D+00
     .240000000000D+01  .000000000000D+00 -.176951289177D-07  .490000000000D+02
     .381606000000D+06  .400000000000D+01
23 17  4  6 12  0  0.0 -.209229532629D-03 -.795807864051D-12  .000000000000D+00
     .190000000000D+02  .464062500000D+02  .539522473277D-08  .145430758045D+01
     .256672501564D-05  .114767079940D-01  .668317079544D-05  .515376610184D+04
     .388800000000D+06 -.156462192535D-06  .565526624614D+00  .160187482834D-06
     .944847264887D+00  .247562500000D+03 -.248370737757D+01 -.860178687038D-08
     .143577409147D-09  .100000000000D+01  .194300000000D+04  .000000000000D+00
     .240000000000D+01  .000000000000D+00 -.200234353542D-07  .190000000000D+02
     .381606000000D+06  .400000000000D+01
24 17  4  6 12  0  0.0 -.330037437379D-04 -.568434188608D-12  .000000000000D+00
     .880000000000D+02 -.289687500000D+02  .514092842602D-08  .803380666955D+00
    -.132806599140D-05  .563073053490D-02  .642985105515D-05  .515369360161D+04
     .388800000000D+06 -.353902578354D-07  .158949635363D+01  .800937414169D-07
     .945611377721D+00  .245156250000D+03  .485401495446D+00 -.846749556232D-08
    -.524307553800D-09  .100000000000D+01  .194300000000D+04  .000000000000D+00
     .340000000000D+01  .000000000000D+00  .232830643654D-08  .880000000000D+02
     .381606000000D+06  .400000000000D+01
25 17  4  6 12  0  0.0 -.365260988474D-03 -.670752342558D-11  .000000000000D+00
     .690000000000D+02  .338437500000D+02  .384480300862D-08 -.115212788616D+01
     .175833702087D-05  .641277909745D-02  .999681651592D-05  .515361515236D+04
     .388800000000D+06  .169500708580D-06  .267070507562D+01  .409781932831D-07
     .977578613010D+00  .196562500000D+03  .782326352884D+00 -.776210903728D-08
    -.109647424398D-09  .100000000000D+01  .194300000000D+04  .000000000000D+00
     .240000000000D+01  .000000000000D+00  .558793544769D-08  .690000000000D+02
     .381606000000D+06  .400000000000D+01
26 17  4  6 12  0  0.0 -.515147112310D-03  .227373675443D-11  .000000000000D+00
     .750000000000D+02  .392500000000D+02  .423910514717D-08 -.171394179292D+01
     .203214585781D-05  .180983566679D-02  .100731849670D-04  .515368461037D+04
     .388800000000D+06 -.949949026108D-07  .265619163944D+01  .260770320892D-07
     .959365173205D+00  .187343750000D+03  .402954830858D-01 -.789211445253D-08
    -.457161899771D-10  .100000000000D+01  .194300000000D+04  .000000000000D+00
     .240000000000D+01  .000000000000D+00  .698491930962D-08  .750000000000D+02
     .381606000000D+06  .400000000000D+01
27 17  4  6 12  0  0.0  .236235558987D-03  .625277607469D-11  .000000000000D+00
     .520000000000D+02  .397812500000D+02  .431303679815D-08  .282400739618D+01
     .216998159885D-05  .464835413732D-02  .438652932644D-05  .515366133881D+04
     .388800000000D+06 -.242143869400D-07 -.257316782003D+01 -.912696123123D-07
     .974516241244D+00  .302906250000D+03  .304967234949D+00 -.817676916669D-08
     .355729103259D-09  .100000000000D+01  .194300000000D+04  .000000000000D+00
     .240000000000D+01  .000000000000D+00  .186264514923D-08  .520000000000D+02
     .381606000000D+06  .400000000000D+01
28 17  4  6 12  0  0.0  .602786894888D-03  .295585778076D-11  .000000000000D+00
     .350000000000D+02  .604062500000D+02  .343335729883D-08 -.266924656092D+01
     .306777656078D-05  .197760725860D-01  .112596899271D-04  .515365223503D+04
     .388800000000D+06  .216066837311D-06  .274880330253D+01  .745058059692D-08
     .988923073118D+00  .174375000000D+03 -.157155812237D+01 -.722280085865D-08
     .721458623076D-10  .100000000000D+01  .194300000000D+04  .000000000000D+00
     .240000000000D+01  .000000000000D+00 -.111758708954D-07  .350000000000D+02
     .381606000000D+06  .400000000000D+01
29 17  4  6 12  0  0.0  .614753458649D-03 -.295585778076D-11  .000000000000D+00
     .210000000000D+02  .293750000000D+02  .417303096635D-08 -.151513981181D+01
     .154599547386D-05  .711902161129D-03  .445917248726D-05  .515364990425D+04
     .388800000000D+06 -.186264514923D-07 -.251141520838D+01 -.931322574615D-08
     .980669137172D+00  .304156250000D+03  .554627441659D-01 -.808819404860D-08
     .280011663610D-09  .100000000000D+01  .194300000000D+04  .000000000000D+00
     .240000000000D+01  .000000000000D+00 -.102445483208D-07  .210000000000D+02
     .381606000000D+06  .400000000000D+01
30 17  4  6 12  0  0.0  .159361865371D-03 -.568434188608D-12  .000000000000D+00
     .820000000000D+02 -.310937500000D+02  .494056293713D-08  .190808843954D-01
    -.184960663319D-05  .261940562632D-02  .746734440327D-05  .515369245148D+04
     .388800000000D+06  .428408384323D-07  .168177882943D+01 -.167638063431D-07
     .948305421824D+00  .227531250000D+03  .305000425342D+01 -.835034782550D-08
    -.611096883210D-09  .100000000000D+01  .194300000000D+04  .000000000000D+00
     .240000000000D+01  .000000000000D+00  .372529029846D-08  .820000000000D+02
     .381606000000D+06  .400000000000D+01
31 17  4  6 12  0  0.0  .208928715438D-03 -.238742359215D-11  .000000000000D+00
     .490000000000D+02 -.190937500000D+02  .453447459335D-08 -.237715419150D+00
    -.110082328320D-05  .845456635579D-02  .725686550140D-05  .515367504501D+04
     .388800000000D+06  .124797224998D-06  .165282762652D+01 -.540167093277D-07
     .967316440178D+00  .244593750000D+03 -.262344389640D+00 -.818605526777D-08
    -.496806408267D-09  .100000000000D+01  .194300000000D+04  .000000000000D+00
     .240000000000D+01  .000000000000D+00 -.135041773319D-07  .490000000000D+02
     .381606000000D+06  .400000000000D+01
